GLOBALSTAR M068         
1 32266U 07048D   25362.21866737 -.00000070  00000+0  18735-3 0  9990
2 32266  51.9897  70.7768 0001329 177.4487 221.3870 12.62836195842075
GLOBALSTAR M079         
1 37188U 10054A   25361.94444596 -.00000082  00000+0  12325-3 0  9995
2 37188  52.0033 269.9601 0000911  43.4238  37.0895 12.62269155700929
GLOBALSTAR M074         
1 37189U 10054B   25362.22742166 -.00000084  00000+0  11209-3 0  9994
2 37189  52.0019 268.3913 0000960  65.4626 101.2175 12.62264566701569
GLOBALSTAR M076         
1 37190U 10054C   25362.17435694 -.00000088  00000+0  86169-4 0  9997
2 37190  52.0033 268.7426 0001072  58.4425 106.0524 12.62268545701274
GLOBALSTAR M077         
1 37191U 10054D   25362.14940150 -.00000067  00000+0  19756-3 0  9997
2 37191  51.9966 253.7410 0001495  50.7350 118.2506 11.68176682701153
GLOBALSTAR M075         
1 37192U 10054E   25358.21427079 -.00000088  00000+0  85706-4 0  9993
2 37192  52.0022 322.9423 0000480 109.7567 352.3949 12.62261317699849
GLOBALSTAR M073         
1 37193U 10054F   25362.10919030 -.00000081  00000+0  12941-3 0  9993
2 37193  52.0038 225.0583 0001142  65.2262 102.4041 12.62268473702326
GLOBALSTAR M083         
1 37739U 11033A   25361.88024148 -.00000079  00000+0  13776-3 0  9992
2 37739  51.9831 174.2159 0001042  81.7315  66.9459 12.62266126671310
GLOBALSTAR M088         
1 37740U 11033B   25362.22358604 -.00000097  00000+0  36237-4 0  9998
2 37740  52.0223  79.1834 0000685 129.6630 259.3935 12.62271107666907
GLOBALSTAR M091         
1 37741U 11033C   25362.15906351 -.00000108  00000+0 -25298-4 0  9998
2 37741  52.0012  42.5996 0000312 141.7640 253.1092 12.62268247667683
GLOBALSTAR M085         
1 37742U 11033D   25362.29926285 -.00000093  00000+0  57864-4 0  9998
2 37742  52.0147 353.3148 0000175  14.4567 358.4610 12.62267496668216
GLOBALSTAR M081         
1 37743U 11033E   25351.59018587 -.00000087  00000+0  92331-4 0  9998
2 37743  51.9980  28.5496 0000222  94.7932  71.3857 12.62270971667009
GLOBALSTAR M089         
1 37744U 11033F   25362.31919921 -.00000083  00000+0  11558-3 0  9990
2 37744  51.9951 310.0758 0000756  71.2055  93.3103 12.62262838669201
GLOBALSTAR M084         
1 38040U 11080A   25362.25492905 -.00000080  00000+0  13087-3 0  9999
2 38040  51.9981 177.6618 0001377  92.7944  78.6668 12.62266955647179
GLOBALSTAR M080         
1 38041U 11080B   25361.79580523 -.00000085  00000+0  10618-3 0  9994
2 38041  52.0029 180.7186 0000685 106.9541 267.0330 12.62265242647248
GLOBALSTAR M082         
1 38042U 11080C   25361.65387573 -.00000093  00000+0  57496-4 0  9995
2 38042  52.0057 136.6322 0000698 120.0480 258.3681 12.62266362647937
GLOBALSTAR M092         
1 38043U 11080D   25362.05227645 -.00000085  00000+0  10203-3 0  9999
2 38043  52.0062 225.8095 0001013  77.4712  71.9168 12.62268853646437
GLOBALSTAR M090         
1 38044U 11080E   25362.31379655 -.00000095  00000+0  48185-4 0  9990
2 38044  52.0109 128.5249 0000783 102.2783 275.2404 12.62265520648137
GLOBALSTAR M086         
1 38045U 11080F   25361.56022425 -.00000088  00000+0  90571-4 0  9995
2 38045  51.9886 131.0278 0001500  60.5284  21.5307 12.62281470647987
GLOBALSTAR M097         
1 39072U 13005A   25362.28312103 -.00000104  00000+0 -30168-6 0  9998
2 39072  52.0062  43.5824 0000323  92.5204 267.5700 12.62267662595325
GLOBALSTAR M093         
1 39073U 13005B   25362.25699668 -.00000104  00000+0  60781-6 0  9993
2 39073  52.0120  36.9447 0000212  49.4763 310.6122 12.62271242595277
GLOBALSTAR M094         
1 39074U 13005C   25362.25690603 -.00000097  00000+0  36985-4 0  9992
2 39074  51.9979 311.2331 0000637  31.2425 328.8480 12.62265439596881
GLOBALSTAR M096         
1 39075U 13005D   25362.26992162 -.00000103  00000+0  50659-5 0  9992
2 39075  52.0092 359.8571 0000193  21.0474 339.0401 12.62269507595800
GLOBALSTAR M078         
1 39076U 13005E   25362.16470837 -.00000206  00000+0 -56835-3 0  9997
2 39076  51.9883  84.4256 0000641 205.6928 154.3907 12.62270843594410
GLOBALSTAR M095         
1 39077U 13005F   25362.27019695 -.00000100  00000+0  23710-4 0  9990
2 39077  52.0089  81.4657 0000250 146.9702 213.1180 12.62267332594287
GLOBALSTAR M087         
1 52888U 22064A   25362.04573515 -.00000088  00000+0  86948-4 0  9998
2 52888  51.9971 223.4861 0000926  64.5606 295.5356 12.62261998169529
